[{"OBJECT_NAME":"STARLINK-6118","OBJECT_ID":"2023-090F","EPOCH":"2026-03-09T20:12:02.855808","MEAN_MOTION":15.02540093,"ECCENTRICITY":0.00010793,"INCLINATION":43.003,"RA_OF_ASC_NODE":274.0477,"ARG_OF_PERICENTER":269.9364,"MEAN_ANOMALY":90.1354,"EPHEMERIS_TYPE":0,"CLASSIFICATION_TYPE":"U","NORAD_CAT_ID":57106,"ELEMENT_SET_NO":999,"REV_AT_EPOCH":15043,"BSTAR":1.12463e-6,"MEAN_MOTION_DOT":-1.88e-6,"MEAN_MOTION_DDOT":0},{"OBJECT_NAME":"OBJECT E","OBJECT_ID":"2025-292E","EPOCH":"2026-03-09T23:06:13.350528","MEAN_MOTION":15.05603019,"ECCENTRICITY":0.00142209,"INCLINATION":97.6388,"RA_OF_ASC_NODE":145.6972,"ARG_OF_PERICENTER":344.4497,"MEAN_ANOMALY":15.6291,"EPHEMERIS_TYPE":0,"CLASSIFICATION_TYPE":"U","NORAD_CAT_ID":66997,"ELEMENT_SET_NO":999,"REV_AT_EPOCH":1350,"BSTAR":0.00040225725,"MEAN_MOTION_DOT":5.752e-5,"MEAN_MOTION_DDOT":0}]
